IONOSFERA-M 4           
1 64877U 25155B   26193.83169385  .00000014  00000+0  25969-4 0  9993
2 64877  98.6037 155.0102 0001777 101.9412 258.1965 14.21493015 50046
MICROCARB               
1 64899U 25156A   26193.76512662  .00000278  00000+0  51100-4 0  9998
2 64899  98.0075 270.5014 0017429 178.3822 181.7446 14.72883584 51737
CO3D 3                  
1 64900U 25156B   26193.79267359  .00002305  00000+0  10956-3 0  9990
2 64900  97.4342 272.1171 0001745  97.1054 263.0380 15.20201611 53429
CO3D 4                  
1 64901U 25156C   26193.66120883  .00000708  00000+0  35811-4 0  9990
2 64901  97.4335 271.9879 0001479 157.7242 202.4057 15.20193869 53401
CO3D 2                  
1 64902U 25156D   26193.82532425  .00002655  00000+0  12568-3 0  9994
2 64902  97.4337 272.0484 0001274  89.4859 270.6522 15.20210324 53428
CO3D 1                  
1 64903U 25156E   26193.69382759  .00002538  00000+0  12030-3 0  9997
2 64903  97.4337 271.9188 0001304 101.9185 258.2196 15.20212664 53400
PRSC-S1                 
1 65055U 25164A   26193.85309157  .00002436  00000+0  17325-3 0  9993
2 65055  41.1294 143.2395 0006354 182.9826 177.0951 15.06624358 52305
SENTINEL-6B             
1 66514U 25264A   26193.77281388 -.00000063  00000+0 -69054-5 0  9995
2 66514  66.0413  82.0381 0007871 268.7737  91.2377 12.80930076 30445
CAS500-3                
1 66655U 25274F   26193.76257639  .00000668  00000+0  77894-4 0  9992
2 66655  97.7438 121.2320 0006381  44.6200 315.5529 14.88380520 33952
CSG-3                   
1 67304U 26001A   26193.51549744  .00000143  00000+0  24473-4 0  9990
2 67304  97.8893  16.7511 0001506  93.2238 266.9147 14.82150900 28214
PRSC-E03                
1 68835U 26092A   26193.76938655  .00001349  00000+0  96094-4 0  9997
2 68835  38.0019 298.8140 0004738 236.0201 124.0110 15.06802081 11812
CAS500-2                
1 69013U 26100AK  26193.68238610  .00003538  00000+0  16310-3 0  9995
2 69013  97.3876  91.0551 0007937 302.8096  57.2375 15.20884256 10681
