OBJECT_NAME,OBJECT_ID,EPOCH,MEAN_MOTION,ECCENTRICITY,INCLINATION,RA_OF_ASC_NODE,ARG_OF_PERICENTER,MEAN_ANOMALY,EPHEMERIS_TYPE,CLASSIFICATION_TYPE,NORAD_CAT_ID,ELEMENT_SET_NO,REV_AT_EPOCH,BSTAR,MEAN_MOTION_DOT,MEAN_MOTION_DDOT
IONOSFERA-M 4,2025-155B,2026-07-12T19:57:38.348640,14.21493015,.0001777,98.6037,155.0102,101.9412,258.1965,0,U,64877,999,5004,.25969E-4,.14E-6,0
MICROCARB,2025-156A,2026-07-12T18:21:46.939968,14.72883584,.0017429,98.0075,270.5014,178.3822,181.7446,0,U,64899,999,5173,.511E-4,.278E-5,0
CO3D 3,2025-156B,2026-07-12T19:01:26.998176,15.20201611,.0001745,97.4342,272.1171,97.1054,263.0380,0,U,64900,999,5342,.10956E-3,.2305E-4,0
CO3D 4,2025-156C,2026-07-12T15:52:08.442912,15.20193869,.0001479,97.4335,271.9879,157.7242,202.4057,0,U,64901,999,5340,.35811E-4,.708E-5,0
CO3D 2,2025-156D,2026-07-12T19:48:28.015200,15.20210324,.0001274,97.4337,272.0484,89.4859,270.6522,0,U,64902,999,5342,.12568E-3,.2655E-4,0
CO3D 1,2025-156E,2026-07-12T16:39:06.703776,15.20212664,.0001304,97.4337,271.9188,101.9185,258.2196,0,U,64903,999,5340,.1203E-3,.2538E-4,0
PRSC-S1,2025-164A,2026-07-12T20:28:27.111648,15.06624358,.0006354,41.1294,143.2395,182.9826,177.0951,0,U,65055,999,5230,.17325E-3,.2436E-4,0
SENTINEL-6B,2025-264A,2026-07-12T18:32:51.119232,12.80930076,.0007871,66.0413,82.0381,268.7737,91.2377,0,U,66514,999,3044,-.69054E-5,-.63E-6,0
CAS500-3,2025-274F,2026-07-12T18:18:06.600096,14.88380520,.0006381,97.7438,121.2320,44.6200,315.5529,0,U,66655,999,3395,.77894E-4,.668E-5,0
CSG-3,2026-001A,2026-07-12T12:22:18.978816,14.82150900,.00015068,97.8893,16.7511,93.2238,266.9147,0,U,67304,999,2821,.24473033E-4,.143E-5,0
PRSC-E03,2026-092A,2026-07-12T18:27:54.997920,15.06802081,.0004738,38.0019,298.8140,236.0201,124.0110,0,U,68835,999,1181,.96094E-4,.1349E-4,0
CAS500-2,2026-100AK,2026-07-12T16:22:38.159040,15.20884256,.0007937,97.3876,91.0551,302.8096,57.2375,0,U,69013,999,1068,.1631E-3,.3538E-4,0
